NORAD_CAT_ID,OBJECT_NAME,OBJECT_TYPE,EPOCH,MEAN_MOTION,ECCENTRICITY,INCLINATION,RA_OF_ASC_NODE,ARG_OF_PERICENTER,MEAN_ANOMALY,BSTAR,MEAN_MOTION_DOT,MEAN_MOTION_DDOT,TLE_LINE0,TLE_LINE1,TLE_LINE2,SEMIMAJOR_AXIS,PERIOD,APOGEE,PERIGEE,DECAYED
56778.0,STARLINK-6304,PAYLOAD,2023-12-29 14:21:56,14.99301026,0.0002988,69.9988,184.4588,269.6373,90.4444,-8.9e-06,-2.03e-06,0.0,0 STARLINK-6304,1 56778U 23078M   23363.59857086 -.00000203  00000-0 -89000-5 0  9997,2 56778  69.9988 184.4588 0002988 269.6373  90.4444 14.99301026 33179,6947.192,96.045,571.133,566.981,0.0
56778.0,STARLINK-6304,PAYLOAD,2023-12-29 19:10:09,14.99300657,0.0002989,69.9989,183.9534,270.0785,90.0032,-9.2122e-06,-2.07e-06,0.0,0 STARLINK-6304,1 56778U 23078M   23363.79872141 -.00000207  00000-0 -92122-5 0  9991,2 56778  69.9989 183.9534 0002989 270.0785  90.0032 14.99300657 33469,6947.193,96.045,571.134,566.981,0.0
56778.0,STARLINK-6304,PAYLOAD,2023-12-29 22:22:18,14.99301342,0.0002987,69.9989,183.6166,270.1018,89.9799,-1.5281e-06,-1.13e-06,0.0,0 STARLINK-6304,1 56778U 23078M   23363.93215427 -.00000113  00000-0 -15281-5 0  9992,2 56778  69.9989 183.6166 0002987 270.1018  89.9799 14.99301342 33228,6947.191,96.045,571.131,566.981,0.0
56778.0,STARLINK-6304,PAYLOAD,2023-12-30 14:23:01,14.99301081,0.0002996,69.9991,181.9323,269.4105,90.6711,8.1574e-06,6e-08,0.0,0 STARLINK-6304,1 56778U 23078M   23364.59932145  .00000006  00000-0  81574-5 0  9995,2 56778  69.9991 181.9323 0002996 269.4105  90.6711 14.99301081 33329,6947.192,96.045,571.138,566.975,0.0
56778.0,STARLINK-6304,PAYLOAD,2023-12-30 19:11:14,14.99301517,0.0002986,69.9991,181.4269,269.4212,90.6606,1.354e-05,7.2e-07,0.0,0 STARLINK-6304,1 56778U 23078M   23364.79947128  .00000072  00000-0  13540-4 0  9994,2 56778  69.9991 181.4269 0002986 269.4212  90.6606 14.99301517 33610,6947.19,96.045,571.13,566.981,0.0
56778.0,STARLINK-6304,PAYLOAD,2023-12-30 22:23:22,14.99301684,0.0002986,69.9991,181.09,269.6344,90.4473,1.4648e-05,8.5e-07,0.0,0 STARLINK-6304,1 56778U 23078M   23364.93290460  .00000085  00000-0  14648-4 0  9994,2 56778  69.9991 181.0900 0002986 269.6344  90.4473 14.99301684 33374,6947.19,96.045,571.129,566.98,0.0
56778.0,STARLINK-6304,PAYLOAD,2023-12-31 19:12:19,14.99299166,0.0002969,69.9993,178.9001,270.057,90.0249,-1.4568e-05,-2.72e-06,0.0,0 STARLINK-6304,1 56778U 23078M   23365.80022513 -.00000272  00000-0 -14568-4 0  9994,2 56778  69.9993 178.9001 0002969 270.0570  90.0249 14.99299166 33762,6947.197,96.045,571.125,567.0,0.0
56778.0,STARLINK-6304,PAYLOAD,2023-12-31 20:48:23,14.99299209,0.0002961,69.9992,178.7316,269.6053,90.4767,-1.3375e-05,-2.58e-06,0.0,0 STARLINK-6304,1 56778U 23078M   23365.86694186 -.00000258  00000-0 -13375-4 0  9990,2 56778  69.9992 178.7316 0002961 269.6053  90.4767 14.99299209 33510,6947.197,96.045,571.119,567.005,0.0
56778.0,STARLINK-6304,PAYLOAD,2024-01-01 14:25:48,14.98856969,0.0004118,69.9991,176.8803,286.2615,73.8091,-0.0046676,-0.00056109,0.0,0 STARLINK-6304,1 56778U 23078M   24001.60125688 -.00056109  00000-0 -46676-2 0  9990,2 56778  69.9991 176.8803 0004118 286.2615  73.8091 14.98856969 33622,6948.564,96.073,573.29,567.567,0.0
56778.0,STARLINK-6304,PAYLOAD,2024-01-01 19:14:13,14.98767324,0.0002732,69.9994,176.3752,280.6106,79.4745,-0.0053849,-0.00064482,0.0,0 STARLINK-6304,1 56778U 23078M   24001.80154454 -.00064482  00000-0 -53849-2 0  9998,2 56778  69.9994 176.3752 0002732 280.6106  79.4745 14.98767324 33912,6948.841,96.079,572.604,568.807,0.0
56778.0,STARLINK-6304,PAYLOAD,2024-01-01 20:50:19,14.98766258,0.0003005,69.9991,176.2065,272.993,87.0886,-0.0053166,-0.00063672,0.0,0 STARLINK-6304,1 56778U 23078M   24001.86827991 -.00063672  00000-0 -53166-2 0  9999,2 56778  69.9991 176.2065 0003005 272.9930  87.0886 14.98766258 33925,6948.844,96.079,572.797,568.621,0.0
56778.0,STARLINK-6304,PAYLOAD,2024-01-02 11:15:19,14.98709333,0.0002951,69.9987,174.6912,266.3135,93.7686,-0.0053084,-0.00063482,0.0,0 STARLINK-6304,1 56778U 23078M   24002.46897816 -.00063482  00000-0 -53084-2 0  9997,2 56778  69.9987 174.6912 0002951 266.3135  93.7686 14.98709333 34010,6949.02,96.083,572.936,568.834,0.0
56778.0,STARLINK-6304,PAYLOAD,2024-01-02 14:27:33,14.98691026,0.00031,69.9984,174.3532,266.2121,93.8684,-0.0051597,-0.00061694,0.0,0 STARLINK-6304,1 56778U 23078M   24002.60247072 -.00061694  00000-0 -51597-2 0  9996,2 56778  69.9984 174.3532 0003100 266.2121  93.8684 14.98691026 33773,6949.077,96.084,573.096,568.787,0.0
56778.0,STARLINK-6304,PAYLOAD,2024-01-02 19:15:54,14.98663888,0.0002904,69.9998,173.8491,265.8457,94.2371,-0.005017,-0.00059962,0.0,0 STARLINK-6304,1 56778U 23078M   24002.80271660 -.00059962  00000-0 -50170-2 0  9999,2 56778  69.9998 173.8491 0002904 265.8457  94.2371 14.98663888 34060,6949.161,96.086,573.044,569.008,0.0
56778.0,STARLINK-6304,PAYLOAD,2024-01-02 20:52:01,14.98661852,0.0003119,69.9991,173.6802,272.6011,87.4791,-0.0049159,-0.00058763,0.0,0 STARLINK-6304,1 56778U 23078M   24002.86946125 -.00058763  00000-0 -49159-2 0  9993,2 56778  69.9991 173.6802 0003119 272.6011  87.4791 14.98661852 33819,6949.167,96.086,573.199,568.864,0.0
56778.0,STARLINK-6304,PAYLOAD,2024-01-03 14:29:24,14.98367418,0.0003058,69.9993,171.8291,269.0956,90.9853,-0.00064043,-7.734e-05,0.0,0 STARLINK-6304,1 56778U 23078M   24003.60375783 -.00007734  00000-0 -64043-3 0  9994,2 56778  69.9993 171.8291 0003058 269.0956  90.9853 14.98367418 33924,6950.077,96.105,574.068,569.817,0.0
56778.0,STARLINK-6304,PAYLOAD,2024-01-03 22:00:00,14.98317002,0.0003179,70.0005,171.0394,276.1847,331.2991,0.0023082,0.00027548,0.0,0 STARLINK-6304,1 56778U 23078M   24003.91667824  .00027548  00000-0  23082-2 0  9998,2 56778  70.0005 171.0394 0003179 276.1847 331.2991 14.98317002 34232,6950.233,96.108,574.308,569.889,0.0
56778.0,STARLINK-6304,PAYLOAD,2024-01-04 14:00:01,14.98356386,0.0003219,70.0007,169.3586,270.5899,331.8396,-0.0035781,-0.00042558,0.0,0 STARLINK-6304,1 56778U 23078M   24004.58334491 -.00042558  00000-0 -35781-2 0  9992,2 56778  70.0007 169.3586 0003219 270.5899 331.8396 14.98356386 34331,6950.111,96.105,574.214,569.739,0.0
56778.0,STARLINK-6304,PAYLOAD,2024-01-04 22:00:00,14.98318739,0.0003193,70.0004,168.5182,276.2285,323.6996,0.0025517,0.00030478,0.0,0 STARLINK-6304,1 56778U 23078M   24004.91667824  .00030478  00000-0  25517-2 0  9990,2 56778  70.0004 168.5182 0003193 276.2285 323.6996 14.98318739  5719,6950.228,96.108,574.312,569.874,0.0
56778.0,STARLINK-6304,PAYLOAD,2024-01-05 00:00:00,14.98346908,0.0003184,70.0002,168.3082,275.7307,53.5599,-0.0022916,-0.00027342,0.0,0 STARLINK-6304,1 56778U 23078M   24005.00001157 -.00027342  00000-0 -22916-2 0  9990,2 56778  70.0002 168.3082 0003184 275.7307  53.5599 14.98346908 34396,6950.141,96.106,574.219,569.793,0.0
56778.0,STARLINK-6304,PAYLOAD,2024-01-05 11:21:09,14.98339611,0.0003137,69.9988,167.1161,274.9457,85.1344,9.1073e-05,9.94e-06,0.0,0 STARLINK-6304,1 56778U 23078M   24005.47302978  .00000994  00000-0  91073-4 0  9990,2 56778  69.9988 167.1161 0003137 274.9457  85.1344 14.98339611 34466,6950.163,96.106,574.208,569.848,0.0
56778.0,STARLINK-6304,PAYLOAD,2024-01-05 14:33:25,14.98340937,0.0003136,69.9989,166.7794,275.0689,85.0112,0.00010283,1.134e-05,0.0,0 STARLINK-6304,1 56778U 23078M   24005.60654777  .00001134  00000-0  10283-3 0  9992,2 56778  69.9989 166.7794 0003136 275.0689  85.0112 14.98340937 34221,6950.159,96.106,574.204,569.844,0.0
56778.0,STARLINK-6304,PAYLOAD,2024-01-05 20:57:57,14.98343636,0.0003134,69.9989,166.1062,275.2812,84.7989,0.00012566,1.407e-05,0.0,0 STARLINK-6304,1 56778U 23078M   24005.87358344  .00001407  00000-0  12566-3 0  9991,2 56778  69.9989 166.1062 0003134 275.2812  84.7989 14.98343636 34262,6950.151,96.106,574.194,569.838,0.0
56778.0,STARLINK-6304,PAYLOAD,2024-01-06 11:23:11,14.98327399,0.0003136,70.0019,164.5942,275.9507,84.1295,2.074e-05,1.54e-06,0.0,0 STARLINK-6304,1 56778U 23078M   24006.47443538  .00000154  00000-0  20740-4 0  9990,2 56778  70.0019 164.5942 0003136 275.9507  84.1295 14.98327399 34619,6950.201,96.107,574.246,569.886,0.0
56778.0,STARLINK-6304,PAYLOAD,2024-01-06 12:59:19,14.98326526,0.0003111,70.0015,164.4268,274.1317,85.9487,4.7001e-06,-3.7e-07,0.0,0 STARLINK-6304,1 56778U 23078M   24006.54119640 -.00000037  00000-0  47001-5 0  9993,2 56778  70.0015 164.4268 0003111 274.1317  85.9487 14.98326526 34363,6950.204,96.107,574.231,569.906,0.0
56778.0,STARLINK-6304,PAYLOAD,2024-01-06 19:23:51,14.98327414,0.0003219,69.9989,163.75,270.0688,90.0102,-4.2642e-05,-6.02e-06,0.0,0 STARLINK-6304,1 56778U 23078M   24006.80823668 -.00000602  00000-0 -42642-4 0  9998,2 56778  69.9989 163.7500 0003219 270.0688  90.0102 14.98327414 34409,6950.201,96.107,574.303,569.829,0.0
56778.0,STARLINK-6304,PAYLOAD,2024-01-07 11:25:12,14.9833334,0.0003029,69.9994,162.0671,267.2501,92.8311,-0.0001318,-1.665e-05,0.0,0 STARLINK-6304,1 56778U 23078M   24007.47583544 -.00001665  00000-0 -13180-3 0  9992,2 56778  69.9994 162.0671 0003029 267.2501  92.8311 14.98333340 34763,6950.183,96.107,574.153,569.942,0.0
56778.0,STARLINK-6304,PAYLOAD,2024-01-07 14:37:28,14.98332768,0.0003152,69.9991,161.7302,269.8799,90.1998,-0.00013525,-1.707e-05,0.0,0 STARLINK-6304,1 56778U 23078M   24007.60935581 -.00001707  00000-0 -13525-3 0  9999,2 56778  69.9991 161.7302 0003152 269.8799  90.1998 14.98332768 34520,6950.184,96.107,574.24,569.859,0.0
56778.0,STARLINK-6304,PAYLOAD,2024-01-07 19:25:52,14.98333275,0.0002935,69.9998,161.2261,265.3372,94.7452,-0.00010656,-1.364e-05,0.0,0 STARLINK-6304,1 56778U 23078M   24007.80963407 -.00001364  00000-0 -10656-3 0  9990,2 56778  69.9998 161.2261 0002935 265.3372  94.7452 14.98333275 34554,6950.183,96.107,574.088,570.008,0.0
56778.0,STARLINK-6304,PAYLOAD,2024-01-08 11:27:13,14.98325864,0.0002986,69.9996,159.5428,268.0258,92.0559,5.6e-05,5.75e-06,0.0,0 STARLINK-6304,1 56778U 23078M   24008.47723413  .00000575  00000-0  56000-4 0  9990,2 56778  69.9996 159.5428 0002986 268.0258  92.0559 14.98325864 34910,6950.206,96.107,574.146,569.995,0.0
